OBJECT_NAME,OBJECT_ID,EPOCH,MEAN_MOTION,ECCENTRICITY,INCLINATION,RA_OF_ASC_NODE,ARG_OF_PERICENTER,MEAN_ANOMALY,EPHEMERIS_TYPE,CLASSIFICATION_TYPE,NORAD_CAT_ID,ELEMENT_SET_NO,REV_AT_EPOCH,BSTAR,MEAN_MOTION_DOT,MEAN_MOTION_DDOT
INTELSAT 902 (IS-902),2001-039A,2026-07-23T01:57:38.530080,1.00272197,.00042651,6.2041,71.3386,50.8048,157.9936,0,U,26900,999,9105,0,-.284E-5,0
INTELSAT 904 (IS-904),2002-007A,2026-07-23T09:24:50.921856,1.00273502,.00052307,7.0075,68.7452,30.1150,312.0102,0,U,27380,999,5212,0,-.227E-5,0
DIRECTV 5 (TEMPO 1),2002-023A,2026-07-23T11:03:33.363648,1.00272282,.00032287,4.9676,74.8547,45.3841,236.7318,0,U,27426,999,8848,0,-.57E-6,0
INTELSAT 905 (IS-905),2002-027A,2026-07-23T14:23:41.055936,1.00273160,.00036095,6.8421,69.3558,52.0788,258.6114,0,U,27438,999,5172,0,.92E-6,0
GALAXY 3C (G-3C),2002-030A,2026-07-23T14:14:41.722080,1.00271496,.00018715,3.8256,77.5073,29.3929,313.2499,0,U,27445,999,4685,0,-.151E-5,0
INTELSAT 906 (IS-906),2002-041A,2026-07-23T03:01:29.031744,1.00271514,.00034037,5.8901,72.4726,32.5508,305.3618,0,U,27513,999,8738,0,.12E-6,0
GALAXY 13 (HORIZONS-1),2003-044A,2026-07-22T17:27:08.048736,1.00274659,.00020746,1.5078,83.3980,44.1505,284.7210,0,U,27954,999,4692,0,.135E-5,0
INTELSAT 10-02,2004-022A,2026-07-23T09:33:27.597312,1.00269181,.00001556,0.0606,255.6866,184.1449,3.6617,0,U,28358,999,8091,0,-.7E-7,0
DIRECTV 8,2005-019A,2026-07-23T12:25:04.916928,1.00271245,.00032146,0.0137,80.9777,44.0764,243.4135,0,U,28659,999,7743,0,.6E-7,0
GALAXY 28 (G-28),2005-022A,2026-07-23T09:26:05.803008,1.00271601,.0002313,3.3885,78.4817,42.5900,294.4803,0,U,28702,999,5233,0,-.199E-5,0
GALAXY 16 (G-16),2006-023A,2026-07-23T12:30:49.366944,1.00272778,.00028447,0.0273,126.1626,357.0508,266.7380,0,U,29236,999,7333,0,-.122E-5,0
DIRECTV 9S,2006-043A,2026-07-23T12:30:11.927232,1.00271942,.0005223,2.5117,80.4643,35.4843,271.6481,0,U,29494,999,5174,0,-.111E-5,0
GALAXY 17 (G-17),2007-016B,2026-07-23T12:34:48.984384,1.00272174,.00035541,3.0605,79.4425,35.4291,290.0700,0,U,31307,999,7016,0,-.204E-5,0
INTELSAT 11 (IS-11),2007-044B,2026-07-23T09:24:13.482144,0.99051909,.00047043,3.6568,78.2255,98.6762,231.9004,0,U,32253,999,6880,0,-.238E-5,0
HORIZONS-2,2007-063B,2026-07-23T12:38:03.672960,1.00271872,.00036981,2.6930,80.1802,22.0985,314.6957,0,U,32388,999,6817,0,-.251E-5,0
DIRECTV 11,2008-013A,2026-07-23T09:54:20.159712,1.00272046,.00002135,0.0121,275.8079,165.5207,269.2057,0,U,32729,999,4595,0,-.121E-5,0
GALAXY 18 (G-18),2008-024A,2026-07-22T19:04:38.428608,1.00273574,.00031528,0.0189,52.6571,74.3921,336.6648,0,U,32951,999,4621,0,0,0
GALAXY 19 (G-19),2008-045A,2026-07-23T14:14:04.282368,1.00271745,.00027441,0.0610,250.3489,244.1349,283.3488,0,U,33376,999,6526,0,-.134E-5,0
FM-5,2009-034A,2026-07-23T00:35:56.976000,1.00269883,.00008464,0.0406,259.5463,130.3836,193.6336,0,U,35493,999,4700,0,-.195E-5,0
INTELSAT 14 (IS-14),2009-064A,2026-07-23T07:38:14.355744,1.00271107,.00025808,0.0162,55.0276,69.6567,245.9187,0,U,36097,999,6096,0,-.269E-5,0
INTELSAT 15 (IS-15),2009-067A,2026-07-23T13:23:24.139392,1.00272108,.0002414,0.0143,56.0874,65.1504,106.0515,0,U,36106,999,4159,0,-.18E-5,0
DIRECTV 12,2009-075A,2026-07-23T12:27:19.504800,1.00271917,.00002206,0.0137,229.6425,313.0373,202.6779,0,U,36131,999,4691,0,-.99E-6,0
INTELSAT 16 (IS-16),2010-006A,2026-07-23T12:37:18.744960,1.00272178,.00021415,0.0115,8.6789,110.1026,295.6033,0,U,36397,999,6001,0,-.24E-5,0
XM-5,2010-053A,2026-07-23T07:49:18.079680,1.00271189,.00013272,0.0616,262.9774,309.4997,90.7012,0,U,37185,999,5784,0,-.18E-6,0
INTELSAT 17 (IS-17),2010-065B,2026-07-23T13:17:54.665952,1.00272613,.00024066,0.0181,101.4554,21.4474,83.8604,0,U,37238,999,5361,0,.3E-7,0
INTELSAT 28 (IS-28),2011-016A,2026-07-23T05:59:21.615072,1.00271117,.00040277,1.8967,82.1851,44.0862,232.8386,0,U,37392,999,5364,0,-.222E-5,0
INTELSAT 18 (IS-18),2011-056A,2026-07-22T20:43:54.391872,1.00272080,.00019995,0.0306,264.0516,225.2474,302.2680,0,U,37834,999,5416,0,.57E-6,0
INTELSAT 22 (IS-22),2012-011A,2026-07-23T13:19:39.499392,1.00271600,.00020321,0.0083,21.9915,124.2010,67.1026,0,U,38098,999,755,0,-.54E-6,0
INTELSAT 19 (IS-19),2012-030A,2026-07-23T07:42:21.750048,1.00273053,.0003101,0.0161,51.5069,68.6402,102.4961,0,U,38356,999,5081,0,-.52E-6,0
INTELSAT 20 (IS-20),2012-043A,2026-07-23T13:18:39.594816,1.00272321,.00013221,0.0140,78.8330,106.5707,24.0487,0,U,38740,999,5111,0,-.2E-6,0
INTELSAT 21 (IS-21),2012-045A,2026-07-23T09:17:14.151840,1.00270708,.00019223,0.0335,261.9243,230.4888,250.0122,0,U,38749,999,5088,0,-.28E-5,0
